{"type": "FeatureCollection", "features": [ {"type": "Feature", "properties": {"norad_id": 44476, "name": "INTELSAT 39 (IS-39)", "group": "intelsat", "lat": -0.02753773843275225, "lon": -169.11317814667603, "alt_km": 35784.70626179168, "timestamp": "2025-12-06T03:35:01.466783+00:00", "meta": {"OBJECT_NAME": "INTELSAT 39 (IS-39)", "OBJECT_ID": "2019-049B", "EPOCH": "2025-12-04T23:54:38.661120", "MEAN_MOTION": 1.00270855, "ECCENTRICITY": 4.749e-05, "INCLINATION": 0.0171, "RA_OF_ASC_NODE": 328.649, "ARG_OF_PERICENTER": 184.1586, "MEAN_ANOMALY": 341.861, "EPHEMERIS_TYPE": 0, "CLASSIFICATION_TYPE": "U", "NORAD_CAT_ID": 44476, "ELEMENT_SET_NO": 999, "REV_AT_EPOCH": 2318, "BSTAR": 0, "MEAN_MOTION_DOT": 4.6e-07, "MEAN_MOTION_DDOT": 0}, "tle": {"line1": "1 44476U 19049B   25338.99628080  .00000046  00000+0  00000+0 0  9999", "line2": "2 44476   0.0171 328.6490 0000474 184.1586 341.8610  1.00270855 23181"}}, "geometry": {"type": "Point", "coordinates": [-169.11317814667603, -0.02753773843275225]}}, {"type": "Feature", "properties": {"norad_id": 46114, "name": "GALAXY 30 (G-30)", "group": "intelsat", "lat": 0.021749708879886503, "lon": 3.9615632108442673, "alt_km": 35790.71421176052, "timestamp": "2025-12-06T03:35:01.466795+00:00", "meta": {"OBJECT_NAME": "GALAXY 30 (G-30)", "OBJECT_ID": "2020-056C", "EPOCH": "2025-12-04T23:24:17.216064", "MEAN_MOTION": 1.00269865, "ECCENTRICITY": 0.0002477, "INCLINATION": 0.0163, "RA_OF_ASC_NODE": 332.4397, "ARG_OF_PERICENTER": 277.9975, "MEAN_ANOMALY": 49.6774, "EPHEMERIS_TYPE": 0, "CLASSIFICATION_TYPE": "U", "NORAD_CAT_ID": 46114, "ELEMENT_SET_NO": 999, "REV_AT_EPOCH": 1934, "BSTAR": 0, "MEAN_MOTION_DOT": 5e-07, "MEAN_MOTION_DDOT": 0}, "tle": {"line1": "1 46114U 20056C   25338.97519926  .00000050  00000+0  00000+0 0  9991", "line2": "2 46114   0.0163 332.4397 0002477 277.9975  49.6774  1.00269865 19346"}}, "geometry": {"type": "Point", "coordinates": [3.9615632108442673, 0.021749708879886503]}}, {"type": "Feature", "properties": {"norad_id": 54026, "name": "GALAXY 33 (G-33)", "group": "intelsat", "lat": -0.0016389567757525273, "lon": -4.038686961690207, "alt_km": 35789.408451291194, "timestamp": "2025-12-06T03:35:01.466807+00:00", "meta": {"OBJECT_NAME": "GALAXY 33 (G-33)", "OBJECT_ID": "2022-128A", "EPOCH": "2025-12-05T02:47:29.007744", "MEAN_MOTION": 1.00269533, "ECCENTRICITY": 0.0002243, "INCLINATION": 0.0117, "RA_OF_ASC_NODE": 23.0859, "ARG_OF_PERICENTER": 225.7168, "MEAN_ANOMALY": 94.2515, "EPHEMERIS_TYPE": 0, "CLASSIFICATION_TYPE": "U", "NORAD_CAT_ID": 54026, "ELEMENT_SET_NO": 999, "REV_AT_EPOCH": 1179, "BSTAR": 0, "MEAN_MOTION_DOT": 9.1e-07, "MEAN_MOTION_DDOT": 0}, "tle": {"line1": "1 54026U 22128A   25339.11630796  .00000091  00000+0  00000+0 0  9995", "line2": "2 54026   0.0117  23.0859 0002243 225.7168  94.2515  1.00269533 11790"}}, "geometry": {"type": "Point", "coordinates": [-4.038686961690207, -0.0016389567757525273]}}, {"type": "Feature", "properties": {"norad_id": 54027, "name": "GALAXY 34 (G-34)", "group": "intelsat", "lat": 0.02180824527067905, "lon": 0.005577567356896781, "alt_km": 35789.18009650276, "timestamp": "2025-12-06T03:35:01.466819+00:00", "meta": {"OBJECT_NAME": "GALAXY 34 (G-34)", "OBJECT_ID": "2022-128B", "EPOCH": "2025-12-05T02:48:36.399744", "MEAN_MOTION": 1.00269413, "ECCENTRICITY": 0.00013695, "INCLINATION": 0.0217, "RA_OF_ASC_NODE": 332.4929, "ARG_OF_PERICENTER": 271.6425, "MEAN_ANOMALY": 103.2558, "EPHEMERIS_TYPE": 0, "CLASSIFICATION_TYPE": "U", "NORAD_CAT_ID": 54027, "ELEMENT_SET_NO": 999, "REV_AT_EPOCH": 1196, "BSTAR": 0, "MEAN_MOTION_DOT": 0, "MEAN_MOTION_DDOT": 0}, "tle": {"line1": "1 54027U 22128B   25339.11708796  .00000000  00000+0  00000+0 0  9992", "line2": "2 54027   0.0217 332.4929 0001369 271.6425 103.2558  1.00269413 11965"}}, "geometry": {"type": "Point", "coordinates": [0.005577567356896781, 0.02180824527067905]}}, {"type": "Feature", "properties": {"norad_id": 54243, "name": "GALAXY 31 (G-31)", "group": "intelsat", "lat": 0.00030067610940691944, "lon": 7.959781644355833, "alt_km": 35788.05540438176, "timestamp": "2025-12-06T03:35:01.466831+00:00", "meta": {"OBJECT_NAME": "GALAXY 31 (G-31)", "OBJECT_ID": "2022-153A", "EPOCH": "2025-12-04T23:25:17.120640", "MEAN_MOTION": 1.0027049, "ECCENTRICITY": 0.00019867, "INCLINATION": 0.0144, "RA_OF_ASC_NODE": 52.8904, "ARG_OF_PERICENTER": 213.6751, "MEAN_ANOMALY": 37.7987, "EPHEMERIS_TYPE": 0, "CLASSIFICATION_TYPE": "U", "NORAD_CAT_ID": 54243, "ELEMENT_SET_NO": 999, "REV_AT_EPOCH": 518, "BSTAR": 0, "MEAN_MOTION_DOT": 2.6e-07, "MEAN_MOTION_DDOT": 0}, "tle": {"line1": "1 54243U 22153A   25338.97589260  .00000026  00000+0  00000+0 0  9994", "line2": "2 54243   0.0144  52.8904 0001986 213.6751  37.7987  1.00270490  5184"}}, "geometry": {"type": "Point", "coordinates": [7.959781644355833, 0.00030067610940691944]}}, {"type": "Feature", "properties": {"norad_id": 54244, "name": "GALAXY 32 (G-32)", "group": "intelsat", "lat": 0.030745560713091404, "lon": 38.00405234569442, "alt_km": 35786.99149569022, "timestamp": "2025-12-06T03:35:01.466843+00:00", "meta": {"OBJECT_NAME": "GALAXY 32 (G-32)", "OBJECT_ID": "2022-153B", "EPOCH": "2025-12-04T13:17:37.099104", "MEAN_MOTION": 1.00275803, "ECCENTRICITY": 0.00027886, "INCLINATION": 0.0107, "RA_OF_ASC_NODE": 343.0801, "ARG_OF_PERICENTER": 315.5746, "MEAN_ANOMALY": 243.3847, "EPHEMERIS_TYPE": 0, "CLASSIFICATION_TYPE": "U", "NORAD_CAT_ID": 54244, "ELEMENT_SET_NO": 999, "REV_AT_EPOCH": 1119, "BSTAR": 0, "MEAN_MOTION_DOT": -1.6e-06, "MEAN_MOTION_DDOT": 0}, "tle": {"line1": "1 54244U 22153B   25338.55390161 -.00000160  00000+0  00000+0 0  9999", "line2": "2 54244   0.0107 343.0801 0002788 315.5746 243.3847  1.00275803 11193"}}, "geometry": {"type": "Point", "coordinates": [38.00405234569442, 0.030745560713091404]}}, {"type": "Feature", "properties": {"norad_id": 54741, "name": "GALAXY 35 (G-35)", "group": "intelsat", "lat": 0.023020020861004232, "lon": 35.85053049256598, "alt_km": 35794.505290819405, "timestamp": "2025-12-06T03:35:01.466855+00:00", "meta": {"OBJECT_NAME": "GALAXY 35 (G-35)", "OBJECT_ID": "2022-170A", "EPOCH": "2025-12-05T04:26:26.705184", "MEAN_MOTION": 1.00270387, "ECCENTRICITY": 0.00027636, "INCLINATION": 0.0148, "RA_OF_ASC_NODE": 12.6393, "ARG_OF_PERICENTER": 250.2236, "MEAN_ANOMALY": 144.8875, "EPHEMERIS_TYPE": 0, "CLASSIFICATION_TYPE": "U", "NORAD_CAT_ID": 54741, "ELEMENT_SET_NO": 999, "REV_AT_EPOCH": 1094, "BSTAR": 0, "MEAN_MOTION_DOT": 0, "MEAN_MOTION_DDOT": 0}, "tle": {"line1": "1 54741U 22170A   25339.18503131  .00000000  00000+0  00000+0 0  9995", "line2": "2 54741   0.0148  12.6393 0002763 250.2236 144.8875  1.00270387 10947"}}, "geometry": {"type": "Point", "coordinates": [35.85053049256598, 0.023020020861004232]}}, {"type": "Feature", "properties": {"norad_id": 54742, "name": "GALAXY 36 (G-36)", "group": "intelsat", "lat": 0.029985937261542233, "lon": 39.94271759993069, "alt_km": 35788.48915353495, "timestamp": "2025-12-06T03:35:01.466867+00:00", "meta": {"OBJECT_NAME": "GALAXY 36 (G-36)", "OBJECT_ID": "2022-170B", "EPOCH": "2025-12-05T03:45:38.745216", "MEAN_MOTION": 1.00270998, "ECCENTRICITY": 6.265e-05, "INCLINATION": 0.0154, "RA_OF_ASC_NODE": 282.4728, "ARG_OF_PERICENTER": 333.9341, "MEAN_ANOMALY": 145.225, "EPHEMERIS_TYPE": 0, "CLASSIFICATION_TYPE": "U", "NORAD_CAT_ID": 54742, "ELEMENT_SET_NO": 999, "REV_AT_EPOCH": 1082, "BSTAR": 0, "MEAN_MOTION_DOT": -1.73e-06, "MEAN_MOTION_DDOT": 0}, "tle": {"line1": "1 54742U 22170B   25339.15669844 -.00000173  00000+0  00000+0 0  9999", "line2": "2 54742   0.0154 282.4728 0000626 333.9341 145.2250  1.00270998 10823"}}, "geometry": {"type": "Point", "coordinates": [39.94271759993069, 0.029985937261542233]}}, {"type": "Feature", "properties": {"norad_id": 57493, "name": "GALAXY 37 (G-37)", "group": "intelsat", "lat": 0.021853232676442028, "lon": 1.96733471056038, "alt_km": 35789.13641114356, "timestamp": "2025-12-06T03:35:01.466879+00:00", "meta": {"OBJECT_NAME": "GALAXY 37 (G-37)", "OBJECT_ID": "2023-112A", "EPOCH": "2025-12-05T02:49:13.840320", "MEAN_MOTION": 1.00269912, "ECCENTRICITY": 0.00024009, "INCLINATION": 0.0107, "RA_OF_ASC_NODE": 314.1921, "ARG_OF_PERICENTER": 302.9074, "MEAN_ANOMALY": 92.3955, "EPHEMERIS_TYPE": 0, "CLASSIFICATION_TYPE": "U", "NORAD_CAT_ID": 57493, "ELEMENT_SET_NO": 999, "REV_AT_EPOCH": 859, "BSTAR": 0, "MEAN_MOTION_DOT": 6.1e-07, "MEAN_MOTION_DDOT": 0}, "tle": {"line1": "1 57493U 23112A   25339.11752130  .00000061  00000+0  00000+0 0  9994", "line2": "2 57493   0.0107 314.1921 0002400 302.9074  92.3955  1.00269912  8595"}}, "geometry": {"type": "Point", "coordinates": [1.96733471056038, 0.021853232676442028]}}]}